BEIDOU-2 IGSO-1 (C06)   
1 36828U 10036A   24056.73868671 -.00000139  00000+0  00000+0 0  9992
2 36828  54.2471 170.5871 0039335 195.2920 162.5633  1.00259579 49751
BEIDOU-2 G4 (C04)       
1 37210U 10057A   24056.87108674 -.00000111  00000+0  00000+0 0  9996
2 37210   1.5763  66.8874 0006037 204.9876 356.9805  1.00271462 48841
BEIDOU-2 IGSO-2 (C07)   
1 37256U 10068A   24056.03400060 -.00000160  00000+0  00000+0 0  9994
2 37256  49.0854 282.1937 0031161 211.2944 140.6414  1.00287136 48338
BEIDOU-2 IGSO-3 (C08)   
1 37384U 11013A   24056.62826032 -.00000152  00000+0  00000+0 0  9994
2 37384  61.1944  48.1950 0027062 184.5166 256.5422  1.00287693 47224
BEIDOU-2 IGSO-4 (C09)   
1 37763U 11038A   24055.78451542 -.00000109  00000+0  00000+0 0  9990
2 37763  54.5546 173.1817 0119742 227.2037 131.7265  1.00283240 46197
BEIDOU-2 IGSO-5 (C10)   
1 37948U 11073A   24051.61881941 -.00000108  00000+0  00000+0 0  9991
2 37948  49.2229 281.9268 0093503 219.9908 326.2044  1.00278304 44638
BEIDOU-2 G5 (C05)       
1 38091U 12008A   24056.92896444  .00000059  00000+0  00000+0 0  9997
2 38091   1.8020  69.7533 0011037 247.3918 231.3157  1.00269741 43923
BEIDOU-2 M3 (C11)       
1 38250U 12018A   24056.17213347 -.00000089  00000+0  00000+0 0  9991
2 38250  56.4101 333.1017 0022751 268.2241  91.5489  1.86231421 80245
BEIDOU-2 M4 (C12)       
1 38251U 12018B   24056.10282052 -.00000089  00000+0  00000+0 0  9994
2 38251  56.3185 332.3842 0013906 274.4656  85.4097  1.86232219 80248
BEIDOU-2 M6 (C14)       
1 38775U 12050B   24055.81242598  .00000009  00000+0  00000+0 0  9990
2 38775  55.8226  90.9525 0013835 327.2611  32.7338  1.86231205 77606
BEIDOU-2 G6 (C02)       
1 38953U 12059A   24056.89563215 -.00000172  00000+0  00000+0 0  9990
2 38953   2.2719  81.2420 0010899 296.0928 184.2254  1.00268544 41462
BEIDOU-3S IGSO-1S (C31) 
1 40549U 15019A   24056.64380289 -.00000151  00000+0  00000+0 0  9991
2 40549  50.7788 305.5179 0035126 192.8538 344.2017  1.00274408 32622
BEIDOU-3S M2S (C58)     
1 40748U 15037A   24054.15623017 -.00000095  00000+0  00000+0 0  9992
2 40748  55.5551 330.9417 0010004 266.9054  93.0096  1.86233266 58383
BEIDOU-3S M1S (C57)     
1 40749U 15037B   24054.96346258 -.00000092  00000+0  00000+0 0  9998
2 40749  55.5576 330.9011 0006697 339.3730  20.6322  1.86233129 58409
BEIDOU-3S IGSO-2S (C56) 
1 40938U 15053A   24055.80049263 -.00000085  00000+0  00000+0 0  9998
2 40938  50.5348 268.7234 0048080 187.5919  81.0309  1.00289111 30897
BEIDOU-2 IGSO-6 (C13)   
1 41434U 16021A   24056.92984029 -.00000122  00000+0  00000+0 0  9990
2 41434  59.0172  46.4821 0050890 225.3015 311.9086  1.00292391 29036
BEIDOU-2 G7 (C03)       
1 41586U 16037A   24056.88521583 -.00000352  00000+0  00000+0 0  9997
2 41586   1.6363  68.0120 0009971 318.6528 197.7633  1.00268867 28342
BEIDOU-3 M1 (C19)       
1 43001U 17069A   24054.50468340  .00000007  00000+0  00000+0 0  9991
2 43001  55.9724  91.0777 0011911 295.0725  64.8845  1.86231562 42876
BEIDOU-3 M2 (C20)       
1 43002U 17069B   24056.05254431  .00000009  00000+0  00000+0 0  9990
2 43002  55.9729  91.0623 0009355 313.1928  46.8095  1.86231189 42892
BEIDOU-3 M7 (C27)       
1 43107U 18003A   24055.26547968 -.00000092  00000+0  00000+0 0  9990
2 43107  55.0118 331.5448 0004396  50.6447 309.4262  1.86232490 41638
BEIDOU-3 M8 (C28)       
1 43108U 18003B   24055.20498618 -.00000093  00000+0  00000+0 0  9993
2 43108  55.0048 331.5331 0003678 281.4549  78.5357  1.86231020 41649
BEIDOU-3 M4 (C22)       
1 43207U 18018A   24056.18358732  .00000009  00000+0  00000+0 0  9995
2 43207  55.9325  91.1149 0006143 331.7254  28.3216  1.86231496 41042
BEIDOU-3 M3 (C21)       
1 43208U 18018B   24056.25016557  .00000009  00000+0  00000+0 0  9990
2 43208  55.9320  91.1171 0009471 303.5576  56.4321  1.86231623 41045
BEIDOU-3 M9 (C29)       
1 43245U 18029A   24055.39825063 -.00000089  00000+0  00000+0 0  9996
2 43245  54.8991 329.2587 0001427 331.4775  28.5508  1.86232818 40186
BEIDOU-3 M10 (C30)      
1 43246U 18029B   24055.32806533 -.00000089  00000+0  00000+0 0  9991
2 43246  54.8964 329.2893 0005062   1.8822 358.1554  1.86232859 40163
BEIDOU-2 IGSO-7 (C16)   
1 43539U 18057A   24056.72757806 -.00000146  00000+0  00000+0 0  9994
2 43539  55.1369 170.3511 0070912 231.2488 127.4705  1.00287575 20687
BEIDOU-3 M5 (C23)       
1 43581U 18062A   24056.62323978  .00000020  00000+0  00000+0 0  9995
2 43581  54.1496 210.9674 0001411 322.3011  37.6351  1.86228803 37946
BEIDOU-3 M6 (C24)       
1 43582U 18062B   24056.48958657  .00000018  00000+0  00000+0 0  9995
2 43582  54.1495 210.9614 0006417  39.2757 320.7167  1.86229654 37948
BEIDOU-3 M12 (C26)      
1 43602U 18067A   24056.42420579  .00000017  00000+0  00000+0 0  9993
2 43602  54.2387 209.6348 0007842  30.9963 328.9951  1.86231715 37426
BEIDOU-3 M11 (C25)      
1 43603U 18067B   24056.02112811  .00000013  00000+0  00000+0 0  9993
2 43603  54.2357 209.6139 0004543  27.4429 332.5260  1.86231595 37447
BEIDOU-3 M13 (C32)      
1 43622U 18072A   24055.98135415  .00000009  00000+0  00000+0 0  9994
2 43622  55.9028  90.6563 0008586 290.8246  69.1635  1.86231342 36958
BEIDOU-3 M14 (C33)      
1 43623U 18072B   24056.38376066  .00000009  00000+0  00000+0 0  9999
2 43623  55.9049  90.6358 0005963 308.8912  51.1352  1.86231333 36957
BEIDOU-3 M16 (C35)      
1 43647U 18078A   24056.01004386 -.00000087  00000+0  00000+0 0  9991
2 43647  54.7950 329.3457 0008271  11.2475 348.8087  1.86232448 36451
BEIDOU-3 M15 (C34)      
1 43648U 18078B   24056.13918824 -.00000087  00000+0  00000+0 0  9996
2 43648  54.7909 329.3446 0005221  15.7992 344.2551  1.86232176 36475
BEIDOU-3 G1 (C59)       
1 43683U 18085A   24056.86717072 -.00000277  00000+0  00000+0 0  9996
2 43683   1.9183 114.4399 0002511 318.9181 174.0853  1.00270510 19610
BEIDOU-3 M17 (C36)      
1 43706U 18093A   24056.28781954  .00000016  00000+0  00000+0 0  9997
2 43706  54.2326 210.9089 0006528 289.5427  70.3325  1.86228431 35824
BEIDOU-3 M18 (C37)      
1 43707U 18093B   24056.15404459  .00000015  00000+0  00000+0 0  9995
2 43707  54.2334 210.9052 0005887 330.8504  29.0623  1.86229908 35830
BEIDOU-3 IGSO-1 (C38)   
1 44204U 19023A   24056.86316767 -.00000187  00000+0  00000+0 0  9995
2 44204  57.4799  46.3977 0021028 216.5895 322.3420  1.00283355 17890
BEIDOU-2 G8 (C01)       
1 44231U 19027A   24056.86804095 -.00000248  00000+0  00000+0 0  9993
2 44231   1.6696  73.0580 0003272 185.4400 353.6729  1.00268265 17635
BEIDOU-3 IGSO-2 (C39)   
1 44337U 19035A   24054.98452080 -.00000166  00000+0  00000+0 0  9992
2 44337  55.1692 166.2708 0032008 203.6170 257.6386  1.00276914 17200
BEIDOU-3 M24 (C46)      
1 44542U 19061A   24056.22439293  .00000016  00000+0  00000+0 0  9992
2 44542  54.4599 211.1752 0008067  10.7041 349.2589  1.86231254 30094
BEIDOU-3 M23 (C45)      
1 44543U 19061B   24056.62779073  .00000020  00000+0  00000+0 0  9995
2 44543  54.4586 211.1307 0004826   7.9771 174.5524  1.86231757 30102
BEIDOU-3 IGSO-3 (C40)   
1 44709U 19073A   24056.04520882 -.00000143  00000+0  00000+0 0  9997
2 44709  56.2390 289.9200 0035187 180.4110 179.6821  1.00284096 16001
BEIDOU-3 M22 (C44)      
1 44793U 19078A   24056.07023690 -.00000087  00000+0  00000+0 0  9990
2 44793  54.6431 329.2895 0007180  16.5177 343.5436  1.86232165 28948
BEIDOU-3 M21 (C43)      
1 44794U 19078B   24056.20033345 -.00000087  00000+0  00000+0 0  9994
2 44794  54.6167 329.2635 0005150   9.2492 350.7986  1.86232672 28955
BEIDOU-3 M19 (C41)      
1 44864U 19090A   24054.83453528  .00000007  00000+0  00000+0 0  9993
2 44864  55.8361  90.8719 0019587 278.4889  79.1184  1.86231841 28505
BEIDOU-3 M20 (C42)      
1 44865U 19090B   24056.44701385  .00000009  00000+0  00000+0 0  9992
2 44865  55.8391  90.8512 0017339 290.2262 158.2320  1.86231794 28520
BEIDOU-3 G2 (C60)       
1 45344U 20017A   24056.89910681 -.00000139  00000+0  00000+0 0  9991
2 45344   2.1882  24.8748 0002427 283.3008 250.7548  1.00271264 14813
BEIDOU-3 G3 (C61)       
1 45807U 20040A   24056.88521583 -.00000353  00000+0  00000+0 0  9997
2 45807   0.6228  23.7232 0008604 297.1559 263.5460  1.00276417 13625
BEIDOU-3 G4             
1 56564U 23066A   24056.87108674 -.00000113  00000+0  00000+0 0  9995
2 56564   2.4052 288.2053 0002608 202.4709 138.1326  1.00271069  2944
BEIDOU-3 M25            
1 58654U 23207A   24056.28312807  .00000006  00000+0  00000+0 0  9994
2 58654  55.0186  90.9181 0004782 275.3288  84.6961  1.86232213  1147
BEIDOU-3 M26            
1 58655U 23207B   24056.08183444  .00000006  00000+0  00000+0 0  9996
2 58655  55.0204  90.9102 0005672 262.3329  97.6823  1.86231750  1127
